#dP2023  1 19 18  0  0.00000000      96 __u+U ITR00 EXT  IAC
## 2245 410400.00000000   900.00000000 59963 0.7500000000000
+  118   C06C07C08C09C10C11C12C13C14C16C19C20C21C22C23C24C25
+        C26C27C28C29C30C32C33C34C35C36C37C38C39C40C41C42C43
+        C44C45C46E01E02E03E04E05E07E08E09E10E11E12E13E14E15
+        E18E19E21E24E25E26E27E30E31E33E34G01G02G03G04G05G06
+        G07G08G09G10G11G12G13G14G15G16G17G18G19G20G21G22G23
+        G24G25G26G27G29G30G31G32J02J03J04R01R02R03R04R05R07
+        R08R09R11R12R13R14R15R16R17R18R19R20R21R22R24R25  0
++        10  8 10 11 11  0  8  9 10 11 10  8  9  7  8  8  9
++         7 10  8 10 10  8  9  9  7  9  9  9 10 10  9  8  8
++         8  8 10  7  7  7  7  7  7  7  8  8  9  9  6  9  8
++         6  8  8  7  8  5  7  7  7  7  7  8  7  6  5  7  6
++         7  7  6  8  7  7  7  7  8  7  6  7  7  6  8  7  8
++         7  6  7  8  7  7  7  6  9 10 10 11  8 10  9  8  8
++         8  7  6  6  8  6  7  8  8  7  7  9  8  8  8  7  0
%c M  cc GPS ccc cccc cccc cccc cccc ccccc ccccc ccccc ccccc
%c cc cc ccc ccc cccc cccc cccc cccc ccccc ccccc ccccc ccccc
%f  0.0000000  0.000000000  0.00000000000  0.000000000000000
%f  0.0000000  0.000000000  0.00000000000  0.000000000000000
%i    0    0    0    0      0      0      0      0         0
%i    0    0    0    0      0      0      0      0         0
/* IAC                                ULTRA-RAPID PREDICTION
/* S/V CLOCKS ARE ALIGNED TO GNSS TIME                      
/* G:C1WC2W R:C1PC2P E:C1XC5X C:C2IC6I J:C1CC2S             
/* PCV:IGS20_2239 OL/AL:FES2004  NONE     YN ORB:CoN CLK:CoN
*  2023 01 19 23  0  0.00000000
PC06  -2502.839891  36869.391397  20536.974986   -186.607648
PC07 -10515.511506  25997.463821 -31450.705213     -8.463054
PC08 -17202.653144  35415.574826  14808.730588    527.808294
PC09   2310.017369  40247.646126  13622.101853    330.734877
PC10  -3884.758542  26769.281020 -32062.715655     28.872647
PC11      0.000000      0.000000      0.000000   -168.327008
PC12 -18050.810839 -18210.375530 -10975.487088    406.461193
PC13 -12240.314458  35707.143315  18659.059128    187.396217
PC14 -27243.802159   3361.537779   5190.372548    386.331884
PC16  -3291.030348  35958.007636  22199.943180     78.321571
PC19  22492.070672  -9168.343484 -13702.978249   -896.399658
PC20  27712.953885   1948.692631   2517.237166    760.284533
PC21 -16589.862283 -12760.041739 -18449.765827   -915.722614
PC22   4006.763790 -15546.787955 -22823.173602   -676.927459
PC23  -9077.293134  25397.364332  -7148.845912   -872.189365
PC24 -17491.095789  -1180.527193  21685.722543   -519.370911
PC25 -18345.028000  18731.747050   9508.611649     58.187392
PC26  -7223.176280 -17385.520267  20592.204649    -66.733280
PC27  15067.844154  23321.362501   2868.480874     84.084339
PC28   2861.379356  24373.651314 -13279.965556     60.812426
PC29  11919.208420 -10922.558714  22741.965945     69.686314
PC30  19717.649933   9142.207523  17513.525716      1.253940
PC32  16578.379811  12694.907492  18527.147908   -645.378564
PC33 -22513.175272   9288.645948  13639.997533   -879.341125
PC34 -19577.110029  -7867.377356 -18259.510778     87.378650
PC35  -2570.559015 -23800.149558  14301.843923    626.844143
PC36  18962.030160 -17819.438323 -10085.274973   -683.047849
PC37   5761.922544  18551.196451 -20019.799860   -842.978351
PC38 -21598.963773  35608.475222   6054.026106     53.067261
PC39  -6653.414006  31570.424061  27277.118718     -1.501991
PC40 -15968.010370  19507.749928 -33840.142552    -12.974213
PC41  -4669.491418  15561.684045  22741.735791   -513.187659
PC42 -27538.399056  -2670.319217  -3664.890721   -885.807679
PC43 -12553.536776  10204.706957 -22745.227610      2.911556
PC44 -15834.275540 -22798.111239  -2695.844651    182.559724
PC45   8856.182081 -25385.461117   7523.653839    -49.697143
PC46  18130.045542   -865.937492 -21217.203882    -27.606146
PE01 -27107.108295  11015.590634   4421.335995   -596.565238
PE02  27080.453041 -11277.640900  -4065.914768     15.717861
PE03  22351.699177  -2173.591073 -19285.949925   -641.604503
PE04  -5799.100033  16267.667237  24043.589178    -39.847415
PE05  26143.613517  13547.224718  -3051.705320   -103.552888
PE07 -14552.120155 -21124.949676 -14769.859369    -16.461247
PE08   5803.149063 -16099.012145 -24154.482595    -22.214875
PE09  14457.235582  21031.091502  14988.186819   -806.049659
PE10  -1157.360955  29565.336198   -817.808807   -506.291922
PE11   5554.418056  27439.620410   9633.937083    532.392320
PE12  -7213.966259  26891.133385 -10074.102229   -390.458213
PE13  -5028.930419 -27801.834211  -8806.576373    429.815510
PE14  -9602.579060  17191.153854 -23280.459154    118.184226
PE15   7333.531084 -26715.776709  10426.226316    693.029091
PE18  -7134.028355 -21666.658953  14536.851864   -489.647712
PE19 -23729.405741   -233.980223  17691.098241  -3445.035730
PE21 -22304.698798  -2962.882281  19221.833519   -507.236021
PE24   3519.569982  16877.577761 -24075.166453  -1067.325188
PE25  22121.830073   3207.338266 -19410.579781   -597.550304
PE26 -14659.908951 -11714.387009 -22881.233363  -1846.460637
PE27  -4442.134367 -16430.201692  24217.339082   -491.776367
PE30  16526.481514 -19948.894434  14329.264647  -1173.947122
PE31 -15831.146287  20075.316984 -14903.927965   -513.766384
PE33 -15265.830129   9887.996493 -23344.919744   -453.883379
PE34  15223.908145 -10093.650351  23294.035953    -25.703429
PG01  13141.097806 -14537.757241  17442.598767    222.361593
PG02 -10696.368016  18624.623235 -15138.935813   -626.282115
PG03  22981.615571 -12845.798051  -3143.770925   -371.120011
PG04  15195.524128  -6605.945386 -20777.209445    -45.294967
PG05 -23879.032077   3329.245887 -11441.623799   -112.636478
PG06  -6256.203189 -22286.733344 -12871.367270    561.055161
PG07   6536.258681 -24714.598288  -5749.530265    255.981425
PG08  22431.425331   3199.012764  14114.318421   -104.394369
PG09   4204.607642 -15356.462027 -21330.066287   -233.519649
PG10   2468.554796  15097.764780  21848.794065    -21.107449
PG11 -12775.630553 -10994.222396 -20524.668851    -82.745050
PG12 -24210.293067  10630.419909  -2088.150856   -330.122371
PG13 -21925.385946 -11727.247423   9426.771499    462.190811
PG14    712.031100 -16440.082292  20831.176816    -45.909531
PG15 -22646.688110   -395.762884  13637.705210      6.076490
PG16  23081.953005   1860.635636 -13715.989414   -523.318924
PG17  -8133.519005 -20155.018013  15638.293390    694.487437
PG18  -5048.812986  25810.110972  -3112.125039   -105.873392
PG19 -17023.776357 -19819.900843   5280.503279    266.360637
PG20 -17401.103437  -5036.160115 -19323.274776    456.001545
PG21  15187.366274  -5042.626683  21675.480815    153.549485
PG22  18866.896528  18646.591518   3019.748397    409.441998
PG23  -9856.029593  17793.563690  17002.906749      3.004802
PG24 -14337.848103  10531.103986  19247.127719    -37.337421
PG25 -18166.839968  16481.519933 -10122.949962    412.782210
PG26  13919.447424   9761.875478 -20582.287837    240.539559
PG27  23168.674627  12586.763420   4476.113680    122.906160
PG29  -7808.441205  12752.989476 -21990.604897   -581.388301
PG30  -1712.033405 -25706.366157   5960.243902   -532.825382
PG31   7815.736853  20804.558723 -14359.353248   -206.819609
PG32  12157.350536  19783.513691  13238.060116   -369.478017
PJ02 -36406.093613  19693.210593  -3538.594583     -0.623341
PJ03 -18946.188333  26929.842775 -21636.151381     -0.045332
PJ04 -27226.039533  29707.712237  18821.343953    119.504669
PR01  -1362.950628  10930.356701  23008.727806     21.547206
PR02  17581.629926  10806.107917  15083.957359    -23.309365
PR03  25145.758173   4230.247027  -1429.226175     71.122522
PR04  18608.562813  -4263.461480 -16898.816374    172.845054
PR05   2028.522149 -10563.783926 -23117.645848    106.453582
PR07 -25087.178287  -3794.617381   2374.534621     48.315034
PR08 -18408.856191   4592.393722  17088.731747    -69.106624
PR09  -5213.978010 -11090.543256  22374.592903     99.479194
PR11 -18117.516427  16823.866781   6304.792306      4.711217
PR12  -9514.878426  20159.361114 -12360.809992     24.432751
PR13   3516.532123  12307.417751 -22083.686287    -31.125065
PR14  16017.477073  -4308.481027 -19369.324786     24.245792
PR15  18116.324639 -17192.512198  -5177.878651     91.606530
PR16   9629.495586 -20260.138728  12120.286157     10.177016
PR17  12625.740418   8024.656106  20663.860242    597.300831
PR18   7568.339583  -9368.991657  22497.548910     62.628434
PR19    -14.729179 -21495.248974  13739.666329   -218.823213
PR20  -9685.895212 -22656.261029  -6497.041408    -86.165667
PR21 -12290.235102  -6472.965122 -21393.858355   -366.742508
PR22  -7889.469037  10096.003854 -22028.957395     67.358622
PR24  10754.237791  22010.334809   7115.671311    140.804897
PR25 -12518.319356  -8962.446044 -20334.305472     52.071459
EOF
